AIST-2T 2               
1 67254U 25313G   26015.39705026  .00032612  00000+0  33329-3 0  9990
2 67254  97.1035  92.7276 0010517 174.7984 185.3387 15.64911456  2760
2025-313H               
1 67255U 25313H   26015.46250130  .00001439  00000+0  10422-3 0  9992
2 67255  97.3099  91.9201 0091221 134.4901 226.3828 15.02168648  2692
SITRO-AIS-57            
1 67256U 25313J   26015.45486970  .00005981  00000+0  28078-3 0  9997
2 67256  97.4109  92.5941 0016965 173.8832 186.2613 15.19881005  2723
SITRO-AIS-59            
1 67257U 25313K   26015.45445029  .00005686  00000+0  26695-3 0  9993
2 67257  97.4116  92.5961 0016692 175.9825 184.1548 15.19906241  2720
SITRO-AIS-58            
1 67258U 25313L   26015.45408778  .00005798  00000+0  27178-3 0  9995
2 67258  97.4111  92.5950 0016640 175.2380 184.9016 15.19949078  2729
2025-313M               
1 67259U 25313M   26015.45133256  .00007707  00000+0  35726-3 0  9992
2 67259  97.4153  92.6201 0015885 173.7608 186.3828 15.20238619  2723
SITRO-AIS-60            
1 67260U 25313N   26015.45260514  .00004546  00000+0  21337-3 0  9993
2 67260  97.4119  92.5992 0016035 175.4657 184.6727 15.20035980  2729
2025-313P               
1 67261U 25313P   26015.44999222  .00010214  00000+0  46966-3 0  9992
2 67261  97.4154  92.6222 0015658 174.1220 186.0202 15.20432298  2725
2025-313Q               
1 67262U 25313Q   26015.51704373  .00006594  00000+0  30632-3 0  9991
2 67262  97.4121  92.6661 0015715 175.8211 184.3158 15.20221526  2731
DCS-1                   
1 67263U 25313R   26015.45150130  .00005758  00000+0  26833-3 0  9990
2 67263  97.4134  92.6155 0015670 174.9320 185.2076 15.20168132  2726
2025-313S               
1 67264U 25313S   26015.45228194  .00004013  00000+0  18872-3 0  9994
2 67264  97.4204  92.6133 0015635 180.0394 180.0843 15.20045540  2723
SITRO-TD-4              
1 67265U 25313T   26015.45114553  .00005838  00000+0  27185-3 0  9991
2 67265  97.4114  92.6109 0015589 175.7877 184.3492 15.20193483  2729
