CCSDS_OMM_VERS = 2.0
CREATION_DATE  = 
ORIGINATOR     = 

OBJECT_NAME    = AIST-2T 2
OBJECT_ID      = 2025-313G
CENTER_NAME    = EARTH
REF_FRAME      = TEME
TIME_SYSTEM    = UTC
MEAN_ELEMENT_THEORY = SGP/SGP4

EPOCH          = 2026-01-15T09:31:45.142464
MEAN_MOTION    = 15.64911456
ECCENTRICITY   = .0010517
INCLINATION    = 97.1035
RA_OF_ASC_NODE = 92.7276
ARG_OF_PERICENTER = 174.7984
MEAN_ANOMALY   = 185.3387

EPHEMERIS_TYPE = 0
CLASSIFICATION_TYPE = U
NORAD_CAT_ID   = 67254
ELEMENT_SET_NO = 999
REV_AT_EPOCH   = 276
BSTAR          = .33329E-3
MEAN_MOTION_DOT = .32612E-3
MEAN_MOTION_DDOT = 0

CCSDS_OMM_VERS = 2.0
CREATION_DATE  = 
ORIGINATOR     = 

OBJECT_NAME    = 2025-313H
OBJECT_ID      = 2025-313H
CENTER_NAME    = EARTH
REF_FRAME      = TEME
TIME_SYSTEM    = UTC
MEAN_ELEMENT_THEORY = SGP/SGP4

EPOCH          = 2026-01-15T11:06:00.112320
MEAN_MOTION    = 15.02168648
ECCENTRICITY   = .0091221
INCLINATION    = 97.3099
RA_OF_ASC_NODE = 91.9201
ARG_OF_PERICENTER = 134.4901
MEAN_ANOMALY   = 226.3828

EPHEMERIS_TYPE = 0
CLASSIFICATION_TYPE = U
NORAD_CAT_ID   = 67255
ELEMENT_SET_NO = 999
REV_AT_EPOCH   = 269
BSTAR          = .10422E-3
MEAN_MOTION_DOT = .1439E-4
MEAN_MOTION_DDOT = 0

CCSDS_OMM_VERS = 2.0
CREATION_DATE  = 
ORIGINATOR     = 

OBJECT_NAME    = SITRO-AIS-57
OBJECT_ID      = 2025-313J
CENTER_NAME    = EARTH
REF_FRAME      = TEME
TIME_SYSTEM    = UTC
MEAN_ELEMENT_THEORY = SGP/SGP4

EPOCH          = 2026-01-15T10:55:00.742080
MEAN_MOTION    = 15.19881005
ECCENTRICITY   = .0016965
INCLINATION    = 97.4109
RA_OF_ASC_NODE = 92.5941
ARG_OF_PERICENTER = 173.8832
MEAN_ANOMALY   = 186.2613

EPHEMERIS_TYPE = 0
CLASSIFICATION_TYPE = U
NORAD_CAT_ID   = 67256
ELEMENT_SET_NO = 999
REV_AT_EPOCH   = 272
BSTAR          = .28078E-3
MEAN_MOTION_DOT = .5981E-4
MEAN_MOTION_DDOT = 0

CCSDS_OMM_VERS = 2.0
CREATION_DATE  = 
ORIGINATOR     = 

OBJECT_NAME    = SITRO-AIS-59
OBJECT_ID      = 2025-313K
CENTER_NAME    = EARTH
REF_FRAME      = TEME
TIME_SYSTEM    = UTC
MEAN_ELEMENT_THEORY = SGP/SGP4

EPOCH          = 2026-01-15T10:54:24.505056
MEAN_MOTION    = 15.19906241
ECCENTRICITY   = .0016692
INCLINATION    = 97.4116
RA_OF_ASC_NODE = 92.5961
ARG_OF_PERICENTER = 175.9825
MEAN_ANOMALY   = 184.1548

EPHEMERIS_TYPE = 0
CLASSIFICATION_TYPE = U
NORAD_CAT_ID   = 67257
ELEMENT_SET_NO = 999
REV_AT_EPOCH   = 272
BSTAR          = .26695E-3
MEAN_MOTION_DOT = .5686E-4
MEAN_MOTION_DDOT = 0

CCSDS_OMM_VERS = 2.0
CREATION_DATE  = 
ORIGINATOR     = 

OBJECT_NAME    = SITRO-AIS-58
OBJECT_ID      = 2025-313L
CENTER_NAME    = EARTH
REF_FRAME      = TEME
TIME_SYSTEM    = UTC
MEAN_ELEMENT_THEORY = SGP/SGP4

EPOCH          = 2026-01-15T10:53:53.184192
MEAN_MOTION    = 15.19949078
ECCENTRICITY   = .001664
INCLINATION    = 97.4111
RA_OF_ASC_NODE = 92.5950
ARG_OF_PERICENTER = 175.2380
MEAN_ANOMALY   = 184.9016

EPHEMERIS_TYPE = 0
CLASSIFICATION_TYPE = U
NORAD_CAT_ID   = 67258
ELEMENT_SET_NO = 999
REV_AT_EPOCH   = 272
BSTAR          = .27178E-3
MEAN_MOTION_DOT = .5798E-4
MEAN_MOTION_DDOT = 0

CCSDS_OMM_VERS = 2.0
CREATION_DATE  = 
ORIGINATOR     = 

OBJECT_NAME    = 2025-313M
OBJECT_ID      = 2025-313M
CENTER_NAME    = EARTH
REF_FRAME      = TEME
TIME_SYSTEM    = UTC
MEAN_ELEMENT_THEORY = SGP/SGP4

EPOCH          = 2026-01-15T10:49:55.133184
MEAN_MOTION    = 15.20238619
ECCENTRICITY   = .0015885
INCLINATION    = 97.4153
RA_OF_ASC_NODE = 92.6201
ARG_OF_PERICENTER = 173.7608
MEAN_ANOMALY   = 186.3828

EPHEMERIS_TYPE = 0
CLASSIFICATION_TYPE = U
NORAD_CAT_ID   = 67259
ELEMENT_SET_NO = 999
REV_AT_EPOCH   = 272
BSTAR          = .35726E-3
MEAN_MOTION_DOT = .7707E-4
MEAN_MOTION_DDOT = 0

CCSDS_OMM_VERS = 2.0
CREATION_DATE  = 
ORIGINATOR     = 

OBJECT_NAME    = SITRO-AIS-60
OBJECT_ID      = 2025-313N
CENTER_NAME    = EARTH
REF_FRAME      = TEME
TIME_SYSTEM    = UTC
MEAN_ELEMENT_THEORY = SGP/SGP4

EPOCH          = 2026-01-15T10:51:45.084096
MEAN_MOTION    = 15.20035980
ECCENTRICITY   = .0016035
INCLINATION    = 97.4119
RA_OF_ASC_NODE = 92.5992
ARG_OF_PERICENTER = 175.4657
MEAN_ANOMALY   = 184.6727

EPHEMERIS_TYPE = 0
CLASSIFICATION_TYPE = U
NORAD_CAT_ID   = 67260
ELEMENT_SET_NO = 999
REV_AT_EPOCH   = 272
BSTAR          = .21337E-3
MEAN_MOTION_DOT = .4546E-4
MEAN_MOTION_DDOT = 0

CCSDS_OMM_VERS = 2.0
CREATION_DATE  = 
ORIGINATOR     = 

OBJECT_NAME    = 2025-313P
OBJECT_ID      = 2025-313P
CENTER_NAME    = EARTH
REF_FRAME      = TEME
TIME_SYSTEM    = UTC
MEAN_ELEMENT_THEORY = SGP/SGP4

EPOCH          = 2026-01-15T10:47:59.327808
MEAN_MOTION    = 15.20432298
ECCENTRICITY   = .0015658
INCLINATION    = 97.4154
RA_OF_ASC_NODE = 92.6222
ARG_OF_PERICENTER = 174.1220
MEAN_ANOMALY   = 186.0202

EPHEMERIS_TYPE = 0
CLASSIFICATION_TYPE = U
NORAD_CAT_ID   = 67261
ELEMENT_SET_NO = 999
REV_AT_EPOCH   = 272
BSTAR          = .46966E-3
MEAN_MOTION_DOT = .10214E-3
MEAN_MOTION_DDOT = 0

CCSDS_OMM_VERS = 2.0
CREATION_DATE  = 
ORIGINATOR     = 

OBJECT_NAME    = 2025-313Q
OBJECT_ID      = 2025-313Q
CENTER_NAME    = EARTH
REF_FRAME      = TEME
TIME_SYSTEM    = UTC
MEAN_ELEMENT_THEORY = SGP/SGP4

EPOCH          = 2026-01-15T12:24:32.578272
MEAN_MOTION    = 15.20221526
ECCENTRICITY   = .0015715
INCLINATION    = 97.4121
RA_OF_ASC_NODE = 92.6661
ARG_OF_PERICENTER = 175.8211
MEAN_ANOMALY   = 184.3158

EPHEMERIS_TYPE = 0
CLASSIFICATION_TYPE = U
NORAD_CAT_ID   = 67262
ELEMENT_SET_NO = 999
REV_AT_EPOCH   = 273
BSTAR          = .30632E-3
MEAN_MOTION_DOT = .6594E-4
MEAN_MOTION_DDOT = 0

CCSDS_OMM_VERS = 2.0
CREATION_DATE  = 
ORIGINATOR     = 

OBJECT_NAME    = DCS-1
OBJECT_ID      = 2025-313R
CENTER_NAME    = EARTH
REF_FRAME      = TEME
TIME_SYSTEM    = UTC
MEAN_ELEMENT_THEORY = SGP/SGP4

EPOCH          = 2026-01-15T10:50:09.712320
MEAN_MOTION    = 15.20168132
ECCENTRICITY   = .001567
INCLINATION    = 97.4134
RA_OF_ASC_NODE = 92.6155
ARG_OF_PERICENTER = 174.9320
MEAN_ANOMALY   = 185.2076

EPHEMERIS_TYPE = 0
CLASSIFICATION_TYPE = U
NORAD_CAT_ID   = 67263
ELEMENT_SET_NO = 999
REV_AT_EPOCH   = 272
BSTAR          = .26833E-3
MEAN_MOTION_DOT = .5758E-4
MEAN_MOTION_DDOT = 0

CCSDS_OMM_VERS = 2.0
CREATION_DATE  = 
ORIGINATOR     = 

OBJECT_NAME    = 2025-313S
OBJECT_ID      = 2025-313S
CENTER_NAME    = EARTH
REF_FRAME      = TEME
TIME_SYSTEM    = UTC
MEAN_ELEMENT_THEORY = SGP/SGP4

EPOCH          = 2026-01-15T10:51:17.159616
MEAN_MOTION    = 15.20045540
ECCENTRICITY   = .0015635
INCLINATION    = 97.4204
RA_OF_ASC_NODE = 92.6133
ARG_OF_PERICENTER = 180.0394
MEAN_ANOMALY   = 180.0843

EPHEMERIS_TYPE = 0
CLASSIFICATION_TYPE = U
NORAD_CAT_ID   = 67264
ELEMENT_SET_NO = 999
REV_AT_EPOCH   = 272
BSTAR          = .18872E-3
MEAN_MOTION_DOT = .4013E-4
MEAN_MOTION_DDOT = 0

CCSDS_OMM_VERS = 2.0
CREATION_DATE  = 
ORIGINATOR     = 

OBJECT_NAME    = SITRO-TD-4
OBJECT_ID      = 2025-313T
CENTER_NAME    = EARTH
REF_FRAME      = TEME
TIME_SYSTEM    = UTC
MEAN_ELEMENT_THEORY = SGP/SGP4

EPOCH          = 2026-01-15T10:49:38.973792
MEAN_MOTION    = 15.20193483
ECCENTRICITY   = .0015589
INCLINATION    = 97.4114
RA_OF_ASC_NODE = 92.6109
ARG_OF_PERICENTER = 175.7877
MEAN_ANOMALY   = 184.3492

EPHEMERIS_TYPE = 0
CLASSIFICATION_TYPE = U
NORAD_CAT_ID   = 67265
ELEMENT_SET_NO = 999
REV_AT_EPOCH   = 272
BSTAR          = .27185E-3
MEAN_MOTION_DOT = .5838E-4
MEAN_MOTION_DDOT = 0

